O3B MPOWER F1           
1 54755U 22174A   24263.52881924 -.00000019  00000+0  00000+0 0  9997
2 54755   0.0544 345.6665 0006572 185.9829 257.6948  5.00113606 33557
